NORAD_CAT_ID,OBJECT_NAME,OBJECT_TYPE,EPOCH,MEAN_MOTION,ECCENTRICITY,INCLINATION,RA_OF_ASC_NODE,ARG_OF_PERICENTER,MEAN_ANOMALY,BSTAR,MEAN_MOTION_DOT,MEAN_MOTION_DDOT,TLE_LINE0,TLE_LINE1,TLE_LINE2,SEMIMAJOR_AXIS,PERIOD,APOGEE,PERIGEE,DECAYED
53619.0,STARLINK-4609,PAYLOAD,2022-09-12 12:00:00,15.7335083,0.0001296999999999,53.2157,211.906,68.9033,18.6505,-0.00080927,-0.00113406,0.0,0 STARLINK-4609,1 53619U 22104AH  22255.50001157 -.00113406  00000-0 -80927-3 0  9994,2 53619  53.2157 211.9060 0001297  68.9033  18.6505 15.73350830  1300,6727.465,91.524,350.20300000000015,348.458,0.0
53619.0,STARLINK-4609,PAYLOAD,2022-09-12 20:00:01,15.73240938,0.0001396999999999,53.2158,210.2548,80.9245,95.7702,-0.0010559,-0.00146515,0.0,0 STARLINK-4609,1 53619U 22104AH  22255.83335648 -.00146515  00000-0 -10559-2 0  9995,2 53619  53.2158 210.2548 0001397  80.9245  95.7702 15.73240938  2509,6727.778,91.531,350.583,348.704,0.0
53619.0,STARLINK-4609,PAYLOAD,2022-09-12 22:00:00,15.73173151,0.0001508,53.216,209.8427,82.8991,205.9826,-0.00030688,-0.00043418,0.0,0 STARLINK-4609,1 53619U 22104AH  22255.91667824 -.00043418  00000-0 -30688-3 0  9992,2 53619  53.2160 209.8427 0001508  82.8991 205.9826 15.73173151  1306,6727.972,91.535,350.851,348.82199999999995,0.0
53619.0,STARLINK-4609,PAYLOAD,2022-09-13 06:00:00,15.7313763,0.0001628,53.2156,208.1956,75.4937,302.2574,0.00042931,0.00059901,0.0,0 STARLINK-4609,1 53619U 22104AH  22256.25001157  .00059901  00000-0  42931-3 0  9997,2 53619  53.2156 208.1956 0001628  75.4937 302.2574 15.73137630  2563,6728.073,91.537,351.033,348.843,0.0
53619.0,STARLINK-4609,PAYLOAD,2022-09-13 14:00:01,15.73161956,0.0001313,53.2152,206.5446,83.4025,23.2359,6.7175e-05,8.802e-05,0.0,0 STARLINK-4609,1 53619U 22104AH  22256.58334491  .00008802  00000-0  67175-4 0  9995,2 53619  53.2152 206.5446 0001313  83.4025  23.2359 15.73161956  1303,6728.004,91.535,350.75199999999984,348.985,0.0
53619.0,STARLINK-4609,PAYLOAD,2022-09-13 16:00:00,15.73133668,0.0001246,53.2157,206.1319,85.2507,133.6183,0.0005421,0.00075933,0.0,0 STARLINK-4609,1 53619U 22104AH  22256.66667824  .00075933  00000-0  54210-3 0  9997,2 53619  53.2157 206.1319 0001246  85.2507 133.6183 15.73133668  2630,6728.084,91.537,350.788,349.111,0.0
53619.0,STARLINK-4609,PAYLOAD,2022-09-13 22:00:00,15.73242884,0.0001202,53.2162,204.8948,91.3364,104.1722,-0.001086,-0.00150609,0.0,0 STARLINK-4609,1 53619U 22104AH  22256.91667824 -.00150609  00000-0 -10860-2 0  9993,2 53619  53.2162 204.8948 0001202  91.3364 104.1722 15.73242884  1306,6727.773,91.531,350.44699999999995,348.829,0.0
53619.0,STARLINK-4609,PAYLOAD,2022-09-14 04:00:00,15.73068184,0.0001071,53.2168,203.6601,67.8091,104.4196,0.00092639,0.00130692,0.0,0 STARLINK-4609,1 53619U 22104AH  22257.16667824  .00130692  00000-0  92639-3 0  9994,2 53619  53.2168 203.6601 0001071  67.8091 104.4196 15.73068184  2717,6728.271,91.541,350.857,349.415,0.0
53619.0,STARLINK-4609,PAYLOAD,2022-09-14 14:00:01,15.73105237,0.0001336,53.2173,201.5975,78.5158,294.8272,0.00090768,0.00128206,0.0,0 STARLINK-4609,1 53619U 22104AH  22257.58334491  .00128206  00000-0  90768-3 0  9990,2 53619  53.2173 201.5975 0001336  78.5158 294.8272 15.73105237  1305,6728.165,91.539,350.92900000000014,349.131,0.0
53619.0,STARLINK-4609,PAYLOAD,2022-09-14 20:00:01,15.73204416,0.0001426999999999,53.2176,200.3597,80.6169,269.3598,7.9693e-06,4.99e-06,0.0,0 STARLINK-4609,1 53619U 22104AH  22257.83334491  .00000499  00000-0  79693-5 0  9997,2 53619  53.2176 200.3597 0001427  80.6169 269.3598 15.73204416  2816,6727.8830000000025,91.533,350.708,348.788,0.0
53619.0,STARLINK-4609,PAYLOAD,2022-09-14 22:00:00,15.73206789,0.0001305,53.2153,199.9469,90.269,11.9169,0.00028492,0.00039567,0.0,0 STARLINK-4609,1 53619U 22104AH  22257.91667824  .00039567  00000-0  28492-3 0  9992,2 53619  53.2153 199.9469 0001305  90.2690  11.9169 15.73206789  1306,6727.876,91.533,350.619,348.86300000000006,0.0
53619.0,STARLINK-4609,PAYLOAD,2022-09-15 14:00:01,15.73248398,0.0001069,53.2146,196.6479,92.7732,187.3132,-0.00010281,-0.00015052,0.0,0 STARLINK-4609,1 53619U 22104AH  22258.58334491 -.00015052  00000-0 -10281-3 0  9999,2 53619  53.2146 196.6479 0001069  92.7732 187.3132 15.73248398  1304,6727.757,91.53,350.341,348.903,0.0
53619.0,STARLINK-4609,PAYLOAD,2022-09-15 22:00:00,15.73231786,0.0001183,53.2148,194.9983,95.1426,273.9105,2.2993e-05,2.612e-05,0.0,0 STARLINK-4609,1 53619U 22104AH  22258.91667824  .00002612  00000-0  22993-4 0  9995,2 53619  53.2148 194.9983 0001183  95.1426 273.9105 15.73231786  1306,6727.805,91.531,350.465,348.874,0.0
53619.0,STARLINK-4609,PAYLOAD,2022-09-16 00:00:00,15.73256753,0.0001205,53.2147,194.5866,92.0787,29.2095,-0.00040946,-0.0005782999999999,0.0,0 STARLINK-4609,1 53619U 22104AH  22259.00001157 -.00057830  00000-0 -40946-3 0  9998,2 53619  53.2147 194.5866 0001205  92.0787  29.2095 15.73256753  3002,6727.733,91.53,350.409,348.788,0.0
53619.0,STARLINK-4609,PAYLOAD,2022-09-16 14:00:01,15.73170034,9.44e-05,53.2149,191.6991,95.1597,91.8046,-0.00040618,-0.00057163,0.0,0 STARLINK-4609,1 53619U 22104AH  22259.58334491 -.00057163  00000-0 -40618-3 0  9996,2 53619  53.2149 191.6991 0000944  95.1597  91.8046 15.73170034  1302,6727.981,91.535,350.481,349.21,0.0
53619.0,STARLINK-4609,PAYLOAD,2022-09-16 22:00:00,15.73143134,9.62e-05,53.2166,190.0498,112.4101,163.4048,0.0010156,0.00144029,0.0,0 STARLINK-4609,1 53619U 22104AH  22259.91667824  .00144029  00000-0  10156-2 0  9991,2 53619  53.2166 190.0498 0000962 112.4101 163.4048 15.73143134  1309,6728.057,91.536,350.57,349.275,0.0
53619.0,STARLINK-4609,PAYLOAD,2022-09-17 06:00:00,15.73207868,9.92e-05,53.2172,188.4028,106.5491,258.1987,-3.8812e-05,-6.064e-05,0.0,0 STARLINK-4609,1 53619U 22104AH  22260.25001157 -.00006064  00000-0 -38812-4 0  9990,2 53619  53.2172 188.4028 0000992 106.5491 258.1987 15.73207868  3193,6727.873000000001,91.533,350.405,349.07,0.0
53619.0,STARLINK-4609,PAYLOAD,2022-09-17 14:00:01,15.73192647,8.62e-05,53.214,186.7508,106.6392,346.9652,0.00053899,0.00075683,0.0,0 STARLINK-4609,1 53619U 22104AH  22260.58334491  .00075683  00000-0  53899-3 0  9998,2 53619  53.2140 186.7508 0000862 106.6392 346.9652 15.73192647  1303,6727.916,91.534,350.361,349.201,0.0
53619.0,STARLINK-4609,PAYLOAD,2022-09-17 22:00:00,15.73284463,0.0001006,53.2142,185.1016,105.2101,77.3283,-0.00028628,-0.00040747,0.0,0 STARLINK-4609,1 53619U 22104AH  22260.91667824 -.00040747  00000-0 -28628-3 0  9991,2 53619  53.2142 185.1016 0001006 105.2101  77.3283 15.73284463  1309,6727.654,91.528,350.196,348.843,0.0
53619.0,STARLINK-4609,PAYLOAD,2022-09-18 04:00:00,15.73234253,0.000107,53.2143,183.8657,91.001,68.3091,0.00016144,0.0002213,0.0,0 STARLINK-4609,1 53619U 22104AH  22261.16667824  .00022130  00000-0  16144-3 0  9993,2 53619  53.2143 183.8657 0001070  91.0010  68.3091 15.73234253  3343,6727.7980000000025,91.531,350.38199999999995,348.9430000000001,0.0
53619.0,STARLINK-4609,PAYLOAD,2022-09-18 14:00:01,15.731924,0.0001320999999999,53.2145,181.8018,102.4733,258.1439,0.00030469,0.00042343,0.0,0 STARLINK-4609,1 53619U 22104AH  22261.58335648  .00042343  00000-0  30469-3 0  9999,2 53619  53.2145 181.8018 0001321 102.4733 258.1439 15.73192400  3401,6727.917,91.534,350.671,348.89300000000014,0.0
53619.0,STARLINK-4609,PAYLOAD,2022-09-18 22:00:00,15.73274915,0.0001335,53.2144,180.1529,99.565,349.9124,-0.00063952,-0.00089708,0.0,0 STARLINK-4609,1 53619U 22104AH  22261.91667824 -.00089708  00000-0 -63952-3 0  9991,2 53619  53.2144 180.1529 0001335  99.5650 349.9124 15.73274915  1307,6727.682,91.529,350.445,348.648,0.0
53619.0,STARLINK-4609,PAYLOAD,2022-09-19 06:00:02,15.73209172,0.0001231999999999,53.2138,178.5045,92.7675,85.7574,-2.4348e-05,-4.037e-05,0.0,0 STARLINK-4609,1 53619U 22104AH  22262.25002315 -.00004037  00000-0 -24348-4 0  9996,2 53619  53.2138 178.5045 0001232  92.7675  85.7574 15.73209172  3514,6727.869000000002,91.533,350.56300000000016,348.905,0.0
53619.0,STARLINK-4609,PAYLOAD,2022-09-19 14:00:01,15.7319695,0.0001256,53.2141,176.85299999999995,106.1248,161.2827,0.00033913,0.00047236,0.0,0 STARLINK-4609,1 53619U 22104AH  22262.58334491  .00047236  00000-0  33913-3 0  9998,2 53619  53.2141 176.8530 0001256 106.1248 161.2827 15.73196950  1305,6727.904,91.533,350.61400000000015,348.9240000000001,0.0
53619.0,STARLINK-4609,PAYLOAD,2022-09-19 22:00:00,15.73278503,0.0001117,53.2143,175.2042,110.4098,245.9336,-0.00098792,-0.00137483,0.0,0 STARLINK-4609,1 53619U 22104AH  22262.91667824 -.00137483  00000-0 -98792-3 0  9996,2 53619  53.2143 175.2042 0001117 110.4098 245.9336 15.73278503  1305,6727.670999999999,91.529,350.288,348.785,0.0
53619.0,STARLINK-4609,PAYLOAD,2022-09-20 14:00:01,15.73193181,9.07e-05,53.2146,171.9043,115.5378,58.6723,-5.1445e-05,-7.829999999999999e-05,0.0,0 STARLINK-4609,1 53619U 22104AH  22263.58334491 -.00007830  00000-0 -51445-4 0  9998,2 53619  53.2146 171.9043 0000907 115.5378  58.6723 15.73193181  1302,6727.915,91.534,350.39,349.1690000000001,0.0
53619.0,STARLINK-4609,PAYLOAD,2022-09-20 22:00:01,15.73194648,0.0001125,53.2147,170.2559,107.0643,156.1261,0.00013789,0.00018771,0.0,0 STARLINK-4609,1 53619U 22104AH  22263.91668981  .00018771  00000-0  13789-3 0  9991,2 53619  53.2147 170.2559 0001125 107.0643 156.1261 15.73194648  1301,6727.91,91.533,350.532,349.019,0.0
53619.0,STARLINK-4609,PAYLOAD,2022-09-21 22:00:00,15.73245927,0.0001229,53.2146,165.3076,111.2587,58.5837,-0.00010187,-0.0001492,0.0,0 STARLINK-4609,1 53619U 22104AH  22264.91667824 -.00014920  00000-0 -10187-3 0  9990,2 53619  53.2146 165.3076 0001229 111.2587  58.5837 15.73245927  1309,6727.764,91.531,350.456,348.802,0.0
53619.0,STARLINK-4609,PAYLOAD,2022-09-22 06:00:00,15.73224066,0.0001014999999999,53.2146,163.6589,104.863,153.9301,-0.00038772,-0.00054735,0.0,0 STARLINK-4609,1 53619U 22104AH  22265.25001157 -.00054735  00000-0 -38772-3 0  9997,2 53619  53.2146 163.6589 0001015 104.8630 153.9301 15.73224066  3982,6727.8269999999975,91.532,350.374,349.009,0.0
